OBJECT_NAME,OBJECT_ID,EPOCH,MEAN_MOTION,ECCENTRICITY,INCLINATION,RA_OF_ASC_NODE,ARG_OF_PERICENTER,MEAN_ANOMALY,EPHEMERIS_TYPE,CLASSIFICATION_TYPE,NORAD_CAT_ID,ELEMENT_SET_NO,REV_AT_EPOCH,BSTAR,MEAN_MOTION_DOT,MEAN_MOTION_DDOT
STARLINK-33952,2025-102AA,2026-07-09T07:45:49.995648,14.98341695,.00028178,70.0076,167.6880,271.2404,88.8432,0,U,64046,999,6417,.27390156E-3,.3178E-4,0
STARLINK-33961,2025-102AB,2026-07-11T08:13:54.909696,14.98329496,.00036829,69.9999,162.7009,262.5423,97.5317,0,U,64047,999,6435,.1765791E-5,-.72E-6,0
STARLINK-11709 [DTC],2025-107B,2026-07-11T02:14:52.986912,15.70854809,.00013206,42.9978,74.6387,338.4130,21.6682,0,U,64065,999,6670,.93014875E-3,.120725E-2,0
STARLINK-11726 [DTC],2025-107D,2026-07-11T03:08:12.187968,15.70885543,.00021658,43.0006,74.0350,266.2780,93.7840,0,U,64067,999,6671,.10673329E-2,.13909E-2,0
STARLINK-11700 [DTC],2025-107E,2026-07-11T13:12:23.601024,15.70891887,.00018589,43.0007,72.0423,244.8734,115.1941,0,U,64068,999,6677,.99785132E-3,.129894E-2,0
STARLINK-11649 [DTC],2025-107F,2026-07-11T01:21:33.533568,15.71066764,.00022881,43.0003,75.2292,3.0095,357.0787,0,U,64069,999,6669,.13672868E-2,.180577E-2,0
STARLINK-11713 [DTC],2025-107G,2026-07-11T00:35:39.680448,15.70881937,.00030173,42.9999,74.9733,248.5241,111.5305,0,U,64070,999,6669,.12687217E-2,.165946E-2,0
STARLINK-11730 [DTC],2025-107L,2026-07-11T00:50:57.708096,15.70944259,.0001517,42.9980,75.0586,256.9612,103.1086,0,U,64074,999,6669,.97229507E-3,.126785E-2,0
STARLINK-11723 [DTC],2025-107M,2026-07-11T17:15:10.723968,15.70843350,.0001556,43.0002,70.7108,268.8058,91.2632,0,U,64075,999,6680,.95926E-3,.124515E-2,0
STARLINK-34201,2025-107P,2026-07-11T10:38:02.048928,15.27592244,.00019964,42.9991,222.9406,289.1827,70.8808,0,U,64077,999,6395,.45354203E-3,.12244E-3,0
STARLINK-34190,2025-107Q,2026-07-11T13:09:20.724192,15.27582348,.0001865,43.0014,222.0102,279.7410,80.3231,0,U,64078,999,6506,.2597E-3,.6891E-4,0
STARLINK-34168,2025-107R,2026-07-11T11:09:16.595424,15.27587053,.00016931,43.0032,222.2390,280.2246,79.8415,0,U,64079,999,6505,.29456711E-3,.7854E-4,0
STARLINK-34098,2025-107S,2026-07-11T11:20:23.019360,15.27582397,.00018723,43.0038,222.2982,280.9113,79.1528,0,U,64080,999,6505,.44424866E-3,.11983E-3,0
STARLINK-34180,2025-107T,2026-07-11T10:17:40.802208,15.27594170,.00019508,43.0005,222.8301,264.5614,95.5016,0,U,64081,999,6504,.2731899E-3,.7266E-4,0
STARLINK-34171,2025-107U,2026-07-11T11:03:43.813728,15.27588408,.00008603,43.0009,222.2017,293.4861,66.5900,0,U,64082,999,6505,.45660374E-3,.12327E-3,0
STARLINK-34126,2025-107V,2026-07-11T10:32:30.225408,15.27577912,.00023699,43.0004,222.9121,295.0930,64.9676,0,U,64083,999,6395,.43886196E-3,.11833E-3,0
STARLINK-34157,2025-107W,2026-07-11T11:16:40.933344,15.27579365,.00017581,43.0033,222.2748,277.4699,82.5953,0,U,64084,999,6503,.25494837E-3,.676E-4,0
STARLINK-34140,2025-107X,2026-07-11T11:46:16.506048,15.27595740,.00015426,42.9979,222.4322,267.8141,92.2534,0,U,64085,999,6503,.31474047E-3,.8413E-4,0
STARLINK-34132,2025-107Y,2026-07-11T02:36:09.202176,15.27587190,.00030686,43.0008,224.7241,286.6059,73.4455,0,U,64086,999,6496,.30853849E-3,.824E-4,0
STARLINK-34178,2025-110A,2026-07-11T08:09:59.887008,15.31707696,.00010605,53.1620,172.4384,94.0365,266.0758,0,U,64096,999,6481,.36663926E-3,.11032E-3,0
STARLINK-34174,2025-110B,2026-07-11T11:38:40.460928,15.34394978,.00012079,53.1581,169.8007,76.8201,283.2936,0,U,64097,999,6486,.54248231E-3,.17994E-3,0
STARLINK-34146,2025-110C,2026-07-11T07:54:42.490080,15.34420218,.00014137,53.1577,170.2535,70.8523,289.2632,0,U,64098,999,6483,.37226035E-3,.1223E-3,0
STARLINK-34074,2025-110D,2026-07-11T08:43:41.712672,15.30193329,.0000303,53.1607,172.5870,334.9338,25.1648,0,U,64099,999,6481,.30074501E-3,.8557E-4,0
STARLINK-34082,2025-110E,2026-07-10T23:16:20.847072,15.30200686,.00006263,53.1617,174.3980,321.9694,38.1262,0,U,64100,999,6475,.37115776E-3,.1065E-3,0
