[ {"name": "STARLINK-33952", "line1": "1 64046U 25102AA  26190.32349532  .00003178  00000+0  27390-3 0  9991", "line2": "2 64046  70.0076 167.6880 0002817 271.2404  88.8432 14.98341695 64177"}, {"name": "STARLINK-33961", "line1": "1 64047U 25102AB  26192.34299664 -.00000072  00000+0  17658-5 0  9995", "line2": "2 64047  69.9999 162.7009 0003682 262.5423  97.5317 14.98329496 64357"}, {"name": "STARLINK-11709 [DTC]", "line1": "1 64065U 25107B   26192.09366883  .00120725  00000+0  93015-3 0  9996", "line2": "2 64065  42.9978  74.6387 0001320 338.4130  21.6682 15.70854809 66706"}, {"name": "STARLINK-11726 [DTC]", "line1": "1 64067U 25107D   26192.13069662  .00139090  00000+0  10673-2 0  9991", "line2": "2 64067  43.0006  74.0350 0002165 266.2780  93.7840 15.70885543 66719"}, {"name": "STARLINK-11700 [DTC]", "line1": "1 64068U 25107E   26192.55027316  .00129894  00000+0  99785-3 0  9991", "line2": "2 64068  43.0007  72.0423 0001858 244.8734 115.1941 15.70891887 66774"}, {"name": "STARLINK-11649 [DTC]", "line1": "1 64069U 25107F   26192.05663812  .00180577  00000+0  13673-2 0  9990", "line2": "2 64069  43.0003  75.2292 0002288   3.0095 357.0787 15.71066764 66698"}, {"name": "STARLINK-11713 [DTC]", "line1": "1 64070U 25107G   26192.02476482  .00165946  00000+0  12687-2 0  9991", "line2": "2 64070  42.9999  74.9733 0003017 248.5241 111.5305 15.70881937 66693"}, {"name": "STARLINK-11730 [DTC]", "line1": "1 64074U 25107L   26192.03539014  .00126785  00000+0  97230-3 0  9993", "line2": "2 64074  42.9980  75.0586 0001517 256.9612 103.1086 15.70944259 66693"}, {"name": "STARLINK-11723 [DTC]", "line1": "1 64075U 25107M   26192.71887413  .00124515  00000+0  95926-3 0  9997", "line2": "2 64075  43.0002  70.7108 0001556 268.8058  91.2632 15.70843350 66809"}, {"name": "STARLINK-34201", "line1": "1 64077U 25107P   26192.44307927  .00012244  00000+0  45354-3 0  9991", "line2": "2 64077  42.9991 222.9406 0001996 289.1827  70.8808 15.27592244 63952"}, {"name": "STARLINK-34190", "line1": "1 64078U 25107Q   26192.54815653  .00006891  00000+0  25970-3 0  9996", "line2": "2 64078  43.0014 222.0102 0001864 279.7410  80.3231 15.27582348 65066"}, {"name": "STARLINK-34168", "line1": "1 64079U 25107R   26192.46477541  .00007854  00000+0  29457-3 0  9992", "line2": "2 64079  43.0032 222.2390 0001693 280.2246  79.8415 15.27587053 65056"}, {"name": "STARLINK-34098", "line1": "1 64080U 25107S   26192.47248865  .00011983  00000+0  44425-3 0  9990", "line2": "2 64080  43.0038 222.2982 0001872 280.9113  79.1528 15.27582397 65054"}, {"name": "STARLINK-34180", "line1": "1 64081U 25107T   26192.42894447  .00007266  00000+0  27319-3 0  9991", "line2": "2 64081  43.0005 222.8301 0001950 264.5614  95.5016 15.27594170 65046"}, {"name": "STARLINK-34171", "line1": "1 64082U 25107U   26192.46092377  .00012327  00000+0  45660-3 0  9991", "line2": "2 64082  43.0009 222.2017 0000860 293.4861  66.5900 15.27588408 65051"}, {"name": "STARLINK-34126", "line1": "1 64083U 25107V   26192.43923872  .00011833  00000+0  43886-3 0  9991", "line2": "2 64083  43.0004 222.9121 0002369 295.0930  64.9676 15.27577912 63958"}, {"name": "STARLINK-34157", "line1": "1 64084U 25107W   26192.46991821  .00006760  00000+0  25495-3 0  9993", "line2": "2 64084  43.0033 222.2748 0001758 277.4699  82.5953 15.27579365 65035"}, {"name": "STARLINK-34140", "line1": "1 64085U 25107X   26192.49046882  .00008413  00000+0  31474-3 0  9996", "line2": "2 64085  42.9979 222.4322 0001542 267.8141  92.2534 15.27595740 65037"}, {"name": "STARLINK-34132", "line1": "1 64086U 25107Y   26192.10843984  .00008240  00000+0  30854-3 0  9992", "line2": "2 64086  43.0008 224.7241 0003068 286.6059  73.4455 15.27587190 64964"}, {"name": "STARLINK-34178", "line1": "1 64096U 25110A   26192.34027647  .00011032  00000+0  36664-3 0  9991", "line2": "2 64096  53.1620 172.4384 0001060  94.0365 266.0758 15.31707696 64815"}, {"name": "STARLINK-34174", "line1": "1 64097U 25110B   26192.48519052  .00017994  00000+0  54248-3 0  9994", "line2": "2 64097  53.1581 169.8007 0001207  76.8201 283.2936 15.34394978 64866"}, {"name": "STARLINK-34146", "line1": "1 64098U 25110C   26192.32965845  .00012230  00000+0  37226-3 0  9998", "line2": "2 64098  53.1577 170.2535 0001413  70.8523 289.2632 15.34420218 64837"}, {"name": "STARLINK-34074", "line1": "1 64099U 25110D   26192.36367723  .00008557  00000+0  30075-3 0  9996", "line2": "2 64099  53.1607 172.5870 0000303 334.9338  25.1648 15.30193329 64812"}, {"name": "STARLINK-34082", "line1": "1 64100U 25110E   26191.96968573  .00010650  00000+0  37116-3 0  9994", "line2": "2 64100  53.1617 174.3980 0000626 321.9694  38.1262 15.30200686 64751"}]